{
  "type": "FeatureCollection",
  "features": [
    {
      "type": "Feature",
      "properties": {
        "norad_id": 2807,
        "name": "OPS 7218 (TRANSIT 16)",
        "group": "nnss",
        "lat": 30.96513881431078,
        "lon": 173.8903844271694,
        "alt_km": 1053.716952831468,
        "timestamp": "2025-12-10T14:53:37.361382+00:00",
        "meta_object_name": "OPS 7218 (TRANSIT 16)",
        "meta_object_id": "1967-048A",
        "meta_epoch": "2025-12-10T07:06:12.998592",
        "meta_mean_motion": 13.50721516,
        "meta_eccentricity": 0.00218563,
        "meta_inclination": 89.6732,
        "meta_ra_of_asc_node": 354.0973,
        "meta_arg_of_pericenter": 120.617,
        "meta_mean_anomaly": 250.802,
        "meta_ephemeris_type": 0,
        "meta_classification_type": "U",
        "meta_norad_cat_id": 2807,
        "meta_element_set_no": 999,
        "meta_rev_at_epoch": 88243,
        "meta_bstar": 0.00020444506,
        "meta_mean_motion_dot": 1.42e-06,
        "meta_mean_motion_ddot": 0,
        "tle_line1": "1 02807U 67048A   25344.29598378  .00000142  00000+0  20445-3 0  9995",
        "tle_line2": "2 02807  89.6732 354.0973 0021856 120.6170 250.8020 13.50721516882437"
      },
      "geometry": {
        "type": "Point",
        "coordinates": [
          173.8903844271694,
          30.96513881431078
        ]
      }
    },
    {
      "type": "Feature",
      "properties": {
        "norad_id": 2965,
        "name": "OPS 4947 (TRANSIT 17)",
        "group": "nnss",
        "lat": -12.212930128427528,
        "lon": -155.24012299895261,
        "alt_km": 1041.3456815075742,
        "timestamp": "2025-12-10T14:53:37.361403+00:00",
        "meta_object_name": "OPS 4947 (TRANSIT 17)",
        "meta_object_id": "1967-092A",
        "meta_epoch": "2025-12-10T03:35:49.999200",
        "meta_mean_motion": 13.5345247,
        "meta_eccentricity": 0.0046041,
        "meta_inclination": 89.2498,
        "meta_ra_of_asc_node": 24.6332,
        "meta_arg_of_pericenter": 242.2755,
        "meta_mean_anomaly": 178.1976,
        "meta_ephemeris_type": 0,
        "meta_classification_type": "U",
        "meta_norad_cat_id": 2965,
        "meta_element_set_no": 999,
        "meta_rev_at_epoch": 87062,
        "meta_bstar": 0.00022488342,
        "meta_mean_motion_dot": 1.63e-06,
        "meta_mean_motion_ddot": 0,
        "tle_line1": "1 02965U 67092A   25344.14988425  .00000163  00000+0  22488-3 0  9991",
        "tle_line2": "2 02965  89.2498  24.6332 0046041 242.2755 178.1976 13.53452470870622"
      },
      "geometry": {
        "type": "Point",
        "coordinates": [
          -155.24012299895261,
          -12.212930128427528
        ]
      }
    },
    {
      "type": "Feature",
      "properties": {
        "norad_id": 3133,
        "name": "OPS 7034 (TRANSIT 18)",
        "group": "nnss",
        "lat": -4.058800083620599,
        "lon": -86.36526684706332,
        "alt_km": 1124.7809249694646,
        "timestamp": "2025-12-10T14:53:37.361415+00:00",
        "meta_object_name": "OPS 7034 (TRANSIT 18)",
        "meta_object_id": "1968-012A",
        "meta_epoch": "2025-12-10T04:53:43.714752",
        "meta_mean_motion": 13.51564774,
        "meta_eccentricity": 0.00736072,
        "meta_inclination": 90.0277,
        "meta_ra_of_asc_node": 273.6316,
        "meta_arg_of_pericenter": 176.489,
        "meta_mean_anomaly": 313.797,
        "meta_ephemeris_type": 0,
        "meta_classification_type": "U",
        "meta_norad_cat_id": 3133,
        "meta_element_set_no": 999,
        "meta_rev_at_epoch": 56884,
        "meta_bstar": 0.00026237374,
        "meta_mean_motion_dot": 1.83e-06,
        "meta_mean_motion_ddot": 0,
        "tle_line1": "1 03133U 68012A   25344.20397818  .00000183  00000+0  26237-3 0  9997",
        "tle_line2": "2 03133  90.0277 273.6316 0073607 176.4890 313.7970 13.51564774568847"
      },
      "geometry": {
        "type": "Point",
        "coordinates": [
          -86.36526684706332,
          -4.058800083620599
        ]
      }
    },
    {
      "type": "Feature",
      "properties": {
        "norad_id": 4507,
        "name": "NNSS 19 (TRANSIT 19)",
        "group": "nnss",
        "lat": -29.667969590804244,
        "lon": -125.46450185804767,
        "alt_km": 963.6768178877246,
        "timestamp": "2025-12-10T14:53:37.361426+00:00",
        "meta_object_name": "NNSS 19 (TRANSIT 19)",
        "meta_object_id": "1970-067A",
        "meta_epoch": "2025-12-10T06:09:04.714848",
        "meta_mean_motion": 13.5131421,
        "meta_eccentricity": 0.01706954,
        "meta_inclination": 90.0056,
        "meta_ra_of_asc_node": 234.5321,
        "meta_arg_of_pericenter": 300.6377,
        "meta_mean_anomaly": 57.8039,
        "meta_ephemeris_type": 0,
        "meta_classification_type": "U",
        "meta_norad_cat_id": 4507,
        "meta_element_set_no": 999,
        "meta_rev_at_epoch": 72188,
        "meta_bstar": 0.00026980875,
        "meta_mean_motion_dot": 1.99e-06,
        "meta_mean_motion_ddot": 0,
        "tle_line1": "1 04507U 70067A   25344.25630457  .00000199  00000+0  26981-3 0  9993",
        "tle_line2": "2 04507  90.0056 234.5321 0170695 300.6377  57.8039 13.51314210721881"
      },
      "geometry": {
        "type": "Point",
        "coordinates": [
          -125.46450185804767,
          -29.667969590804244
        ]
      }
    },
    {
      "type": "Feature",
      "properties": {
        "norad_id": 6909,
        "name": "NNSS 20 (TRANSIT 20)",
        "group": "nnss",
        "lat": -69.35325918723885,
        "lon": 75.4674585627106,
        "alt_km": 1113.0965407664999,
        "timestamp": "2025-12-10T14:53:37.361437+00:00",
        "meta_object_name": "NNSS 20 (TRANSIT 20)",
        "meta_object_id": "1973-081A",
        "meta_epoch": "2025-12-10T06:41:18.269088",
        "meta_mean_motion": 13.71432468,
        "meta_eccentricity": 0.01566145,
        "meta_inclination": 89.8563,
        "meta_ra_of_asc_node": 255.091,
        "meta_arg_of_pericenter": 85.6012,
        "meta_mean_anomaly": 276.3026,
        "meta_ephemeris_type": 0,
        "meta_classification_type": "U",
        "meta_norad_cat_id": 6909,
        "meta_element_set_no": 999,
        "meta_rev_at_epoch": 80327,
        "meta_bstar": 0.00033623777,
        "meta_mean_motion_dot": 3.42e-06,
        "meta_mean_motion_ddot": 0,
        "tle_line1": "1 06909U 73081A   25344.27868367  .00000342  00000+0  33624-3 0  9997",
        "tle_line2": "2 06909  89.8563 255.0910 0156614  85.6012 276.3026 13.71432468803277"
      },
      "geometry": {
        "type": "Point",
        "coordinates": [
          75.4674585627106,
          -69.35325918723885
        ]
      }
    },
    {
      "type": "Feature",
      "properties": {
        "norad_id": 10457,
        "name": "TRANSAT",
        "group": "nnss",
        "lat": -7.509177314635759,
        "lon": 78.62561370965584,
        "alt_km": 1097.2788352591797,
        "timestamp": "2025-12-10T14:53:37.361446+00:00",
        "meta_object_name": "TRANSAT",
        "meta_object_id": "1977-106A",
        "meta_epoch": "2025-12-10T08:08:02.573088",
        "meta_mean_motion": 13.48943113,
        "meta_eccentricity": 0.00251637,
        "meta_inclination": 89.6481,
        "meta_ra_of_asc_node": 78.682,
        "meta_arg_of_pericenter": 196.5115,
        "meta_mean_anomaly": 229.0335,
        "meta_ephemeris_type": 0,
        "meta_classification_type": "U",
        "meta_norad_cat_id": 10457,
        "meta_element_set_no": 999,
        "meta_rev_at_epoch": 36711,
        "meta_bstar": 0.00020017454,
        "meta_mean_motion_dot": 1.36e-06,
        "meta_mean_motion_ddot": 0,
        "tle_line1": "1 10457U 77106A   25344.33891867  .00000136  00000+0  20017-3 0  9993",
        "tle_line2": "2 10457  89.6481  78.6820 0025163 196.5115 229.0335 13.48943113367110"
      },
      "geometry": {
        "type": "Point",
        "coordinates": [
          78.62561370965584,
          -7.509177314635759
        ]
      }
    },
    {
      "type": "Feature",
      "properties": {
        "norad_id": 12458,
        "name": "NOVA 1",
        "group": "nnss",
        "lat": 89.47418737702355,
        "lon": 107.726855125457,
        "alt_km": 1153.4616721361672,
        "timestamp": "2025-12-10T14:53:37.361456+00:00",
        "meta_object_name": "NOVA 1",
        "meta_object_id": "1981-044A",
        "meta_epoch": "2025-12-10T07:15:46.976256",
        "meta_mean_motion": 13.23278143,
        "meta_eccentricity": 0.00158591,
        "meta_inclination": 89.8524,
        "meta_ra_of_asc_node": 91.4196,
        "meta_arg_of_pericenter": 109.9742,
        "meta_mean_anomaly": 265.8367,
        "meta_ephemeris_type": 0,
        "meta_classification_type": "U",
        "meta_norad_cat_id": 12458,
        "meta_element_set_no": 999,
        "meta_rev_at_epoch": 15154,
        "meta_bstar": 0.00018395376,
        "meta_mean_motion_dot": 8.7e-07,
        "meta_mean_motion_ddot": 0,
        "tle_line1": "1 12458U 81044A   25344.30262704  .00000087  00000+0  18395-3 0  9992",
        "tle_line2": "2 12458  89.8524  91.4196 0015859 109.9742 265.8367 13.23278143151545"
      },
      "geometry": {
        "type": "Point",
        "coordinates": [
          107.726855125457,
          89.47418737702355
        ]
      }
    }
  ]
}